IRIDIUM 106             
1 41917U 17003A   24186.61937917  .00000139  00000+0  42483-4 0  9994
2 41917  86.3965  26.2996 0002632  88.9396 271.2101 14.34217969391071
IRIDIUM 103             
1 41918U 17003B   24186.60669231  .00000148  00000+0  45646-4 0  9999
2 41918  86.3965  26.2066 0002067  98.9441 261.1988 14.34218182391095
IRIDIUM 109             
1 41919U 17003C   24186.61304564  .00000075  00000+0  19692-4 0  9997
2 41919  86.3968  26.2519 0001745  87.5462 272.5933 14.34202035391064
IRIDIUM 102             
1 41920U 17003D   24186.58132241  .00000174  00000+0  54985-4 0  9990
2 41920  86.3965  26.2037 0002054  82.6455 277.4974 14.34217230391141
IRIDIUM 105             
1 41921U 17003E   24186.55204822  .00000418  00000+0  14223-3 0  9994
2 41921  86.3982 354.6554 0002144  94.0015 266.1426 14.34224404392994
IRIDIUM 104             
1 41922U 17003F   24186.59400178  .00000372  00000+0  12566-3 0  9998
2 41922  86.3965  26.2301 0001732  90.5922 269.5472 14.34225067391137
IRIDIUM 114             
1 41923U 17003G   24186.60035050  .00000315  00000+0  10557-3 0  9999
2 41923  86.3967  26.2134 0002409  87.9492 272.1979 14.34218198391115
IRIDIUM 108             
1 41924U 17003H   24186.62864080  .00000019  00000+0 -27711-6 0  9990
2 41924  86.3976 354.5468 0002393  89.5574 270.5895 14.34216896392971
